[{"OBJECT_NAME":"STARLINK-2495","OBJECT_ID":"2021-036BB","EPOCH":"2026-03-10T00:00:02.999808","MEAN_MOTION":15.25666379,"ECCENTRICITY":0.00013586,"INCLINATION":53.1396,"RA_OF_ASC_NODE":99.5343,"ARG_OF_PERICENTER":96.575,"MEAN_ANOMALY":112.8894,"EPHEMERIS_TYPE":0,"CLASSIFICATION_TYPE":"U","NORAD_CAT_ID":48325,"ELEMENT_SET_NO":999,"REV_AT_EPOCH":579,"BSTAR":0.06493745,"MEAN_MOTION_DOT":0.01841397,"MEAN_MOTION_DDOT":0},{"OBJECT_NAME":"OBJECT B","OBJECT_ID":"2022-158B","EPOCH":"2026-03-09T22:41:40.741152","MEAN_MOTION":15.49759097,"ECCENTRICITY":0.0010727,"INCLINATION":97.4774,"RA_OF_ASC_NODE":189.7942,"ARG_OF_PERICENTER":321.2118,"MEAN_ANOMALY":38.8362,"EPHEMERIS_TYPE":0,"CLASSIFICATION_TYPE":"U","NORAD_CAT_ID":54362,"ELEMENT_SET_NO":999,"REV_AT_EPOCH":18336,"BSTAR":0.0004299082,"MEAN_MOTION_DOT":0.00023884,"MEAN_MOTION_DDOT":0}]
